; ============================================================
; FDM Sliced G-code — generated by Image Plotter
; Layer height    : 0.2 mm
; Trace height    : 2.0 mm  (10 layers)
; Line width      : 0.5 mm
; Filament        : 1.75 mm
; Print speed     : 3000.0 mm/min (50 mm/s)
; Hotend temp     : 200.0 °C
; Bed temp        : 60.0 °C
; ============================================================

M104 S200       ; Start heating hotend
M140 S60         ; Start heating bed
M109 S200       ; Wait for hotend
M190 S60         ; Wait for bed

G21              ; mm units
G90              ; absolute XYZ positioning
M82              ; absolute E axis
G28              ; home all axes
G92 E0           ; reset extruder

; ----- Prime line -----
G0 Z0.3 F3000
G0 X5 Y20 F6000
G1 X5 Y120 E8.0 F900   ; prime left edge
G1 X5.4 Y120 F6000
G1 X5.4 Y20 E16.0 F900
G92 E0

; ===== Layer 1 / 10  Z=0.200 =====
G0 Z0.200 F6000.0
G1 E-0.80000 F2700  ; retract
G0 X137.146 Y214.488 F6000.0  ; travel
G1 E0.00000 F2700  ; un-retract
G1 X134.073 Y215.000 E0.12953 F1500
G1 X126.902 Y215.000 E0.42765 F1500
G1 X123.829 Y214.488 E0.55718 F1500
G1 X120.244 Y213.463 E0.71221 F1500
G1 X117.683 Y212.439 E0.82689 F1500
G1 X114.098 Y209.878 E1.01007 F1500
G1 X99.756 Y209.878 E1.60632 F1500
G1 X99.244 Y188.366 E2.50094 F1500
G1 X96.683 Y188.366 E2.60742 F1500
G1 X90.024 Y186.829 E2.89152 F1500
G1 X83.878 Y184.780 E3.16088 F1500
G1 X81.317 Y183.756 E3.27556 F1500
G1 X72.098 Y179.146 E3.70410 F1500
G1 X68.000 Y176.585 E3.90499 F1500
G1 X61.854 Y171.976 E4.22441 F1500
G1 X58.780 Y169.415 E4.39073 F1500
G1 X52.634 Y163.268 E4.75211 F1500
G1 X45.976 Y155.073 E5.19111 F1500
G1 X42.902 Y150.463 E5.42145 F1500
G1 X39.317 Y144.317 E5.71728 F1500
G1 X37.268 Y140.220 E5.90774 F1500
G1 X33.683 Y131.512 E6.29924 F1500
G1 X31.634 Y124.854 E6.58888 F1500
G1 X30.098 Y118.707 E6.85228 F1500
G1 X29.073 Y113.073 E7.09036 F1500
G1 X28.049 Y104.366 E7.45486 F1500
G1 X28.049 Y90.024 E8.05111 F1500
G1 X28.561 Y84.902 E8.26512 F1500
G1 X30.098 Y75.683 E8.65371 F1500
G1 X32.659 Y65.951 E9.07208 F1500
G1 X35.732 Y57.756 E9.43597 F1500
G1 X39.317 Y50.073 E9.78845 F1500
G1 X42.902 Y43.927 E10.08429 F1500
G1 X45.976 Y39.317 E10.31462 F1500
G1 X49.561 Y34.707 E10.55742 F1500
G1 X52.634 Y31.122 E10.75375 F1500
G1 X58.780 Y24.976 E11.11513 F1500
G1 X64.415 Y20.366 E11.41778 F1500
G1 X72.098 Y15.244 E11.80168 F1500
G1 X81.317 Y10.634 E12.23022 F1500
G1 X90.024 Y7.561 E12.61411 F1500
G1 X94.122 Y6.537 E12.78971 F1500
G1 X99.756 Y5.512 E13.02780 F1500
G1 X104.366 Y5.000 E13.22063 F1500
G1 X115.634 Y5.000 E13.68911 F1500
G1 X120.244 Y5.512 E13.88194 F1500
G1 X125.878 Y6.537 E14.12002 F1500
G1 X129.976 Y7.561 E14.29562 F1500
G1 X138.683 Y10.634 E14.67951 F1500
G1 X147.902 Y15.244 E15.10806 F1500
G1 X155.585 Y20.366 E15.49195 F1500
G1 X161.220 Y24.976 E15.79460 F1500
G1 X167.366 Y31.122 E16.15599 F1500
G1 X172.488 Y37.268 E16.48862 F1500
G1 X177.098 Y43.927 E16.82532 F1500
G1 X180.683 Y50.073 E17.12115 F1500
G1 X184.268 Y57.756 E17.47364 F1500
G1 X187.341 Y65.951 E17.83752 F1500
G1 X189.902 Y75.683 E18.25589 F1500
G1 X190.927 Y81.317 E18.49397 F1500
G1 X191.951 Y90.024 E18.85848 F1500
G1 X191.951 Y104.366 E19.45473 F1500
G1 X191.439 Y109.488 E19.66874 F1500
G1 X190.415 Y116.146 E19.94882 F1500
G1 X188.366 Y124.854 E20.32072 F1500
G1 X186.317 Y131.512 E20.61035 F1500
G1 X182.732 Y140.220 E21.00185 F1500
G1 X180.683 Y144.317 E21.19232 F1500
G1 X177.098 Y150.463 E21.48815 F1500
G1 X172.488 Y157.122 E21.82485 F1500
G1 X167.366 Y163.268 E22.15748 F1500
G1 X161.220 Y169.415 E22.51886 F1500
G1 X155.585 Y174.024 E22.82151 F1500
G1 X150.463 Y177.610 E23.08145 F1500
G1 X147.902 Y179.146 E23.20561 F1500
G1 X138.683 Y183.756 E23.63416 F1500
G1 X136.122 Y184.780 E23.74883 F1500
G1 X129.976 Y186.829 E24.01819 F1500
G1 X125.878 Y187.854 E24.19379 F1500
G1 X120.244 Y188.878 E24.43187 F1500
G1 X116.146 Y188.878 E24.60223 F1500
G1 X115.122 Y189.902 E24.66246 F1500
G1 X115.634 Y192.976 E24.79199 F1500
G1 X116.659 Y192.976 E24.83458 F1500
G1 X117.683 Y191.951 E24.89481 F1500
G1 X121.780 Y190.415 E25.07675 F1500
G1 X126.902 Y189.390 E25.29391 F1500
G1 X134.073 Y189.390 E25.59204 F1500
G1 X139.195 Y190.415 E25.80920 F1500
G1 X143.293 Y191.951 E25.99114 F1500
G1 X145.854 Y193.488 E26.11531 F1500
G1 X149.439 Y197.073 E26.32612 F1500
G1 X150.976 Y200.659 E26.48829 F1500
G1 X150.976 Y203.732 E26.61606 F1500
G1 X149.439 Y207.317 E26.77823 F1500
G1 X145.854 Y210.902 E26.98904 F1500
G1 X143.293 Y212.439 E27.11321 F1500
G1 X140.732 Y213.463 E27.22788 F1500
G1 X137.146 Y214.488 E27.38291 F1500
; ===== Layer 2 / 10  Z=0.400 =====
G0 Z0.400 F6000.0
M106 S255   ; Fan ON at layer 2
G1 X134.073 Y215.000 E27.51244 F3000.0
G1 X126.902 Y215.000 E27.81056 F3000.0
G1 X123.829 Y214.488 E27.94009 F3000.0
G1 X120.244 Y213.463 E28.09512 F3000.0
G1 X117.683 Y212.439 E28.20980 F3000.0
G1 X114.098 Y209.878 E28.39298 F3000.0
G1 X99.756 Y209.878 E28.98923 F3000.0
G1 X99.244 Y188.366 E29.88385 F3000.0
G1 X96.683 Y188.366 E29.99033 F3000.0
G1 X90.024 Y186.829 E30.27443 F3000.0
G1 X83.878 Y184.780 E30.54379 F3000.0
G1 X81.317 Y183.756 E30.65846 F3000.0
G1 X72.098 Y179.146 E31.08701 F3000.0
G1 X68.000 Y176.585 E31.28790 F3000.0
G1 X61.854 Y171.976 E31.60732 F3000.0
G1 X58.780 Y169.415 E31.77364 F3000.0
G1 X52.634 Y163.268 E32.13502 F3000.0
G1 X45.976 Y155.073 E32.57402 F3000.0
G1 X42.902 Y150.463 E32.80436 F3000.0
G1 X39.317 Y144.317 E33.10019 F3000.0
G1 X37.268 Y140.220 E33.29065 F3000.0
G1 X33.683 Y131.512 E33.68215 F3000.0
G1 X31.634 Y124.854 E33.97179 F3000.0
G1 X30.098 Y118.707 E34.23519 F3000.0
G1 X29.073 Y113.073 E34.47327 F3000.0
G1 X28.049 Y104.366 E34.83777 F3000.0
G1 X28.049 Y90.024 E35.43402 F3000.0
G1 X28.561 Y84.902 E35.64803 F3000.0
G1 X30.098 Y75.683 E36.03662 F3000.0
G1 X32.659 Y65.951 E36.45499 F3000.0
G1 X35.732 Y57.756 E36.81888 F3000.0
G1 X39.317 Y50.073 E37.17136 F3000.0
G1 X42.902 Y43.927 E37.46720 F3000.0
G1 X45.976 Y39.317 E37.69753 F3000.0
G1 X49.561 Y34.707 E37.94033 F3000.0
G1 X52.634 Y31.122 E38.13666 F3000.0
G1 X58.780 Y24.976 E38.49804 F3000.0
G1 X64.415 Y20.366 E38.80069 F3000.0
G1 X72.098 Y15.244 E39.18458 F3000.0
G1 X81.317 Y10.634 E39.61313 F3000.0
G1 X90.024 Y7.561 E39.99702 F3000.0
G1 X94.122 Y6.537 E40.17262 F3000.0
G1 X99.756 Y5.512 E40.41070 F3000.0
G1 X104.366 Y5.000 E40.60354 F3000.0
G1 X115.634 Y5.000 E41.07202 F3000.0
G1 X120.244 Y5.512 E41.26485 F3000.0
G1 X125.878 Y6.537 E41.50293 F3000.0
G1 X129.976 Y7.561 E41.67853 F3000.0
G1 X138.683 Y10.634 E42.06242 F3000.0
G1 X147.902 Y15.244 E42.49097 F3000.0
G1 X155.585 Y20.366 E42.87486 F3000.0
G1 X161.220 Y24.976 E43.17751 F3000.0
G1 X167.366 Y31.122 E43.53890 F3000.0
G1 X172.488 Y37.268 E43.87153 F3000.0
G1 X177.098 Y43.927 E44.20822 F3000.0
G1 X180.683 Y50.073 E44.50406 F3000.0
G1 X184.268 Y57.756 E44.85655 F3000.0
G1 X187.341 Y65.951 E45.22043 F3000.0
G1 X189.902 Y75.683 E45.63880 F3000.0
G1 X190.927 Y81.317 E45.87688 F3000.0
G1 X191.951 Y90.024 E46.24139 F3000.0
G1 X191.951 Y104.366 E46.83764 F3000.0
G1 X191.439 Y109.488 E47.05164 F3000.0
G1 X190.415 Y116.146 E47.33173 F3000.0
G1 X188.366 Y124.854 E47.70363 F3000.0
G1 X186.317 Y131.512 E47.99326 F3000.0
G1 X182.732 Y140.220 E48.38476 F3000.0
G1 X180.683 Y144.317 E48.57522 F3000.0
G1 X177.098 Y150.463 E48.87106 F3000.0
G1 X172.488 Y157.122 E49.20776 F3000.0
G1 X167.366 Y163.268 E49.54039 F3000.0
G1 X161.220 Y169.415 E49.90177 F3000.0
G1 X155.585 Y174.024 E50.20442 F3000.0
G1 X150.463 Y177.610 E50.46436 F3000.0
G1 X147.902 Y179.146 E50.58852 F3000.0
G1 X138.683 Y183.756 E51.01707 F3000.0
G1 X136.122 Y184.780 E51.13174 F3000.0
G1 X129.976 Y186.829 E51.40110 F3000.0
G1 X125.878 Y187.854 E51.57670 F3000.0
G1 X120.244 Y188.878 E51.81478 F3000.0
G1 X116.146 Y188.878 E51.98514 F3000.0
G1 X115.122 Y189.902 E52.04537 F3000.0
G1 X115.634 Y192.976 E52.17490 F3000.0
G1 X116.659 Y192.976 E52.21749 F3000.0
G1 X117.683 Y191.951 E52.27772 F3000.0
G1 X121.780 Y190.415 E52.45966 F3000.0
G1 X126.902 Y189.390 E52.67682 F3000.0
G1 X134.073 Y189.390 E52.97495 F3000.0
G1 X139.195 Y190.415 E53.19211 F3000.0
G1 X143.293 Y191.951 E53.37405 F3000.0
G1 X145.854 Y193.488 E53.49822 F3000.0
G1 X149.439 Y197.073 E53.70903 F3000.0
G1 X150.976 Y200.659 E53.87120 F3000.0
G1 X150.976 Y203.732 E53.99897 F3000.0
G1 X149.439 Y207.317 E54.16114 F3000.0
G1 X145.854 Y210.902 E54.37195 F3000.0
G1 X143.293 Y212.439 E54.49612 F3000.0
G1 X140.732 Y213.463 E54.61079 F3000.0
G1 X137.146 Y214.488 E54.76582 F3000.0
; ===== Layer 3 / 10  Z=0.600 =====
G0 Z0.600 F6000.0
G1 X134.073 Y215.000 E54.89535 F3000.0
G1 X126.902 Y215.000 E55.19347 F3000.0
G1 X123.829 Y214.488 E55.32300 F3000.0
G1 X120.244 Y213.463 E55.47803 F3000.0
G1 X117.683 Y212.439 E55.59270 F3000.0
G1 X114.098 Y209.878 E55.77589 F3000.0
G1 X99.756 Y209.878 E56.37214 F3000.0
G1 X99.244 Y188.366 E57.26676 F3000.0
G1 X96.683 Y188.366 E57.37324 F3000.0
G1 X90.024 Y186.829 E57.65734 F3000.0
G1 X83.878 Y184.780 E57.92670 F3000.0
G1 X81.317 Y183.756 E58.04137 F3000.0
G1 X72.098 Y179.146 E58.46992 F3000.0
G1 X68.000 Y176.585 E58.67081 F3000.0
G1 X61.854 Y171.976 E58.99023 F3000.0
G1 X58.780 Y169.415 E59.15655 F3000.0
G1 X52.634 Y163.268 E59.51793 F3000.0
G1 X45.976 Y155.073 E59.95693 F3000.0
G1 X42.902 Y150.463 E60.18726 F3000.0
G1 X39.317 Y144.317 E60.48310 F3000.0
G1 X37.268 Y140.220 E60.67356 F3000.0
G1 X33.683 Y131.512 E61.06506 F3000.0
G1 X31.634 Y124.854 E61.35470 F3000.0
G1 X30.098 Y118.707 E61.61810 F3000.0
G1 X29.073 Y113.073 E61.85618 F3000.0
G1 X28.049 Y104.366 E62.22068 F3000.0
G1 X28.049 Y90.024 E62.81693 F3000.0
G1 X28.561 Y84.902 E63.03094 F3000.0
G1 X30.098 Y75.683 E63.41953 F3000.0
G1 X32.659 Y65.951 E63.83790 F3000.0
G1 X35.732 Y57.756 E64.20178 F3000.0
G1 X39.317 Y50.073 E64.55427 F3000.0
G1 X42.902 Y43.927 E64.85011 F3000.0
G1 X45.976 Y39.317 E65.08044 F3000.0
G1 X49.561 Y34.707 E65.32324 F3000.0
G1 X52.634 Y31.122 E65.51957 F3000.0
G1 X58.780 Y24.976 E65.88095 F3000.0
G1 X64.415 Y20.366 E66.18360 F3000.0
G1 X72.098 Y15.244 E66.56749 F3000.0
G1 X81.317 Y10.634 E66.99604 F3000.0
G1 X90.024 Y7.561 E67.37993 F3000.0
G1 X94.122 Y6.537 E67.55553 F3000.0
G1 X99.756 Y5.512 E67.79361 F3000.0
G1 X104.366 Y5.000 E67.98644 F3000.0
G1 X115.634 Y5.000 E68.45493 F3000.0
G1 X120.244 Y5.512 E68.64776 F3000.0
G1 X125.878 Y6.537 E68.88584 F3000.0
G1 X129.976 Y7.561 E69.06144 F3000.0
G1 X138.683 Y10.634 E69.44533 F3000.0
G1 X147.902 Y15.244 E69.87388 F3000.0
G1 X155.585 Y20.366 E70.25777 F3000.0
G1 X161.220 Y24.976 E70.56042 F3000.0
G1 X167.366 Y31.122 E70.92180 F3000.0
G1 X172.488 Y37.268 E71.25444 F3000.0
G1 X177.098 Y43.927 E71.59113 F3000.0
G1 X180.683 Y50.073 E71.88697 F3000.0
G1 X184.268 Y57.756 E72.23946 F3000.0
G1 X187.341 Y65.951 E72.60334 F3000.0
G1 X189.902 Y75.683 E73.02171 F3000.0
G1 X190.927 Y81.317 E73.25979 F3000.0
G1 X191.951 Y90.024 E73.62430 F3000.0
G1 X191.951 Y104.366 E74.22055 F3000.0
G1 X191.439 Y109.488 E74.43455 F3000.0
G1 X190.415 Y116.146 E74.71464 F3000.0
G1 X188.366 Y124.854 E75.08653 F3000.0
G1 X186.317 Y131.512 E75.37617 F3000.0
G1 X182.732 Y140.220 E75.76767 F3000.0
G1 X180.683 Y144.317 E75.95813 F3000.0
G1 X177.098 Y150.463 E76.25397 F3000.0
G1 X172.488 Y157.122 E76.59066 F3000.0
G1 X167.366 Y163.268 E76.92330 F3000.0
G1 X161.220 Y169.415 E77.28468 F3000.0
G1 X155.585 Y174.024 E77.58733 F3000.0
G1 X150.463 Y177.610 E77.84726 F3000.0
G1 X147.902 Y179.146 E77.97143 F3000.0
G1 X138.683 Y183.756 E78.39998 F3000.0
G1 X136.122 Y184.780 E78.51465 F3000.0
G1 X129.976 Y186.829 E78.78401 F3000.0
G1 X125.878 Y187.854 E78.95961 F3000.0
G1 X120.244 Y188.878 E79.19769 F3000.0
G1 X116.146 Y188.878 E79.36805 F3000.0
G1 X115.122 Y189.902 E79.42828 F3000.0
G1 X115.634 Y192.976 E79.55781 F3000.0
G1 X116.659 Y192.976 E79.60040 F3000.0
G1 X117.683 Y191.951 E79.66063 F3000.0
G1 X121.780 Y190.415 E79.84257 F3000.0
G1 X126.902 Y189.390 E80.05973 F3000.0
G1 X134.073 Y189.390 E80.35786 F3000.0
G1 X139.195 Y190.415 E80.57502 F3000.0
G1 X143.293 Y191.951 E80.75696 F3000.0
G1 X145.854 Y193.488 E80.88113 F3000.0
G1 X149.439 Y197.073 E81.09193 F3000.0
G1 X150.976 Y200.659 E81.25411 F3000.0
G1 X150.976 Y203.732 E81.38188 F3000.0
G1 X149.439 Y207.317 E81.54405 F3000.0
G1 X145.854 Y210.902 E81.75486 F3000.0
G1 X143.293 Y212.439 E81.87903 F3000.0
G1 X140.732 Y213.463 E81.99370 F3000.0
G1 X137.146 Y214.488 E82.14873 F3000.0
; ===== Layer 4 / 10  Z=0.800 =====
G0 Z0.800 F6000.0
G1 X134.073 Y215.000 E82.27826 F3000.0
G1 X126.902 Y215.000 E82.57638 F3000.0
G1 X123.829 Y214.488 E82.70591 F3000.0
G1 X120.244 Y213.463 E82.86094 F3000.0
G1 X117.683 Y212.439 E82.97561 F3000.0
G1 X114.098 Y209.878 E83.15880 F3000.0
G1 X99.756 Y209.878 E83.75505 F3000.0
G1 X99.244 Y188.366 E84.64967 F3000.0
G1 X96.683 Y188.366 E84.75614 F3000.0
G1 X90.024 Y186.829 E85.04025 F3000.0
G1 X83.878 Y184.780 E85.30961 F3000.0
G1 X81.317 Y183.756 E85.42428 F3000.0
G1 X72.098 Y179.146 E85.85283 F3000.0
G1 X68.000 Y176.585 E86.05372 F3000.0
G1 X61.854 Y171.976 E86.37314 F3000.0
G1 X58.780 Y169.415 E86.53946 F3000.0
G1 X52.634 Y163.268 E86.90084 F3000.0
G1 X45.976 Y155.073 E87.33984 F3000.0
G1 X42.902 Y150.463 E87.57017 F3000.0
G1 X39.317 Y144.317 E87.86601 F3000.0
G1 X37.268 Y140.220 E88.05647 F3000.0
G1 X33.683 Y131.512 E88.44797 F3000.0
G1 X31.634 Y124.854 E88.73761 F3000.0
G1 X30.098 Y118.707 E89.00101 F3000.0
G1 X29.073 Y113.073 E89.23909 F3000.0
G1 X28.049 Y104.366 E89.60359 F3000.0
G1 X28.049 Y90.024 E90.19984 F3000.0
G1 X28.561 Y84.902 E90.41385 F3000.0
G1 X30.098 Y75.683 E90.80244 F3000.0
G1 X32.659 Y65.951 E91.22081 F3000.0
G1 X35.732 Y57.756 E91.58469 F3000.0
G1 X39.317 Y50.073 E91.93718 F3000.0
G1 X42.902 Y43.927 E92.23302 F3000.0
G1 X45.976 Y39.317 E92.46335 F3000.0
G1 X49.561 Y34.707 E92.70615 F3000.0
G1 X52.634 Y31.122 E92.90247 F3000.0
G1 X58.780 Y24.976 E93.26386 F3000.0
G1 X64.415 Y20.366 E93.56651 F3000.0
G1 X72.098 Y15.244 E93.95040 F3000.0
G1 X81.317 Y10.634 E94.37895 F3000.0
G1 X90.024 Y7.561 E94.76284 F3000.0
G1 X94.122 Y6.537 E94.93844 F3000.0
G1 X99.756 Y5.512 E95.17652 F3000.0
G1 X104.366 Y5.000 E95.36935 F3000.0
G1 X115.634 Y5.000 E95.83783 F3000.0
G1 X120.244 Y5.512 E96.03067 F3000.0
G1 X125.878 Y6.537 E96.26875 F3000.0
G1 X129.976 Y7.561 E96.44435 F3000.0
G1 X138.683 Y10.634 E96.82824 F3000.0
G1 X147.902 Y15.244 E97.25678 F3000.0
G1 X155.585 Y20.366 E97.64068 F3000.0
G1 X161.220 Y24.976 E97.94333 F3000.0
G1 X167.366 Y31.122 E98.30471 F3000.0
G1 X172.488 Y37.268 E98.63735 F3000.0
G1 X177.098 Y43.927 E98.97404 F3000.0
G1 X180.683 Y50.073 E99.26988 F3000.0
G1 X184.268 Y57.756 E99.62237 F3000.0
G1 X187.341 Y65.951 E99.98625 F3000.0
G1 X189.902 Y75.683 E100.40462 F3000.0
G1 X190.927 Y81.317 E100.64270 F3000.0
G1 X191.951 Y90.024 E101.00721 F3000.0
G1 X191.951 Y104.366 E101.60345 F3000.0
G1 X191.439 Y109.488 E101.81746 F3000.0
G1 X190.415 Y116.146 E102.09755 F3000.0
G1 X188.366 Y124.854 E102.46944 F3000.0
G1 X186.317 Y131.512 E102.75908 F3000.0
G1 X182.732 Y140.220 E103.15058 F3000.0
G1 X180.683 Y144.317 E103.34104 F3000.0
G1 X177.098 Y150.463 E103.63688 F3000.0
G1 X172.488 Y157.122 E103.97357 F3000.0
G1 X167.366 Y163.268 E104.30621 F3000.0
G1 X161.220 Y169.415 E104.66759 F3000.0
G1 X155.585 Y174.024 E104.97024 F3000.0
G1 X150.463 Y177.610 E105.23017 F3000.0
G1 X147.902 Y179.146 E105.35434 F3000.0
G1 X138.683 Y183.756 E105.78289 F3000.0
G1 X136.122 Y184.780 E105.89756 F3000.0
G1 X129.976 Y186.829 E106.16692 F3000.0
G1 X125.878 Y187.854 E106.34252 F3000.0
G1 X120.244 Y188.878 E106.58060 F3000.0
G1 X116.146 Y188.878 E106.75096 F3000.0
G1 X115.122 Y189.902 E106.81119 F3000.0
G1 X115.634 Y192.976 E106.94072 F3000.0
G1 X116.659 Y192.976 E106.98331 F3000.0
G1 X117.683 Y191.951 E107.04354 F3000.0
G1 X121.780 Y190.415 E107.22548 F3000.0
G1 X126.902 Y189.390 E107.44264 F3000.0
G1 X134.073 Y189.390 E107.74077 F3000.0
G1 X139.195 Y190.415 E107.95793 F3000.0
G1 X143.293 Y191.951 E108.13987 F3000.0
G1 X145.854 Y193.488 E108.26404 F3000.0
G1 X149.439 Y197.073 E108.47484 F3000.0
G1 X150.976 Y200.659 E108.63702 F3000.0
G1 X150.976 Y203.732 E108.76479 F3000.0
G1 X149.439 Y207.317 E108.92696 F3000.0
G1 X145.854 Y210.902 E109.13777 F3000.0
G1 X143.293 Y212.439 E109.26193 F3000.0
G1 X140.732 Y213.463 E109.37661 F3000.0
G1 X137.146 Y214.488 E109.53164 F3000.0
; ===== Layer 5 / 10  Z=1.000 =====
G0 Z1.000 F6000.0
G1 X134.073 Y215.000 E109.66117 F3000.0
G1 X126.902 Y215.000 E109.95929 F3000.0
G1 X123.829 Y214.488 E110.08882 F3000.0
G1 X120.244 Y213.463 E110.24385 F3000.0
G1 X117.683 Y212.439 E110.35852 F3000.0
G1 X114.098 Y209.878 E110.54171 F3000.0
G1 X99.756 Y209.878 E111.13795 F3000.0
G1 X99.244 Y188.366 E112.03258 F3000.0
G1 X96.683 Y188.366 E112.13905 F3000.0
G1 X90.024 Y186.829 E112.42316 F3000.0
G1 X83.878 Y184.780 E112.69252 F3000.0
G1 X81.317 Y183.756 E112.80719 F3000.0
G1 X72.098 Y179.146 E113.23574 F3000.0
G1 X68.000 Y176.585 E113.43663 F3000.0
G1 X61.854 Y171.976 E113.75605 F3000.0
G1 X58.780 Y169.415 E113.92237 F3000.0
G1 X52.634 Y163.268 E114.28375 F3000.0
G1 X45.976 Y155.073 E114.72275 F3000.0
G1 X42.902 Y150.463 E114.95308 F3000.0
G1 X39.317 Y144.317 E115.24892 F3000.0
G1 X37.268 Y140.220 E115.43938 F3000.0
G1 X33.683 Y131.512 E115.83088 F3000.0
G1 X31.634 Y124.854 E116.12052 F3000.0
G1 X30.098 Y118.707 E116.38391 F3000.0
G1 X29.073 Y113.073 E116.62200 F3000.0
G1 X28.049 Y104.366 E116.98650 F3000.0
G1 X28.049 Y90.024 E117.58275 F3000.0
G1 X28.561 Y84.902 E117.79676 F3000.0
G1 X30.098 Y75.683 E118.18535 F3000.0
G1 X32.659 Y65.951 E118.60372 F3000.0
G1 X35.732 Y57.756 E118.96760 F3000.0
G1 X39.317 Y50.073 E119.32009 F3000.0
G1 X42.902 Y43.927 E119.61592 F3000.0
G1 X45.976 Y39.317 E119.84626 F3000.0
G1 X49.561 Y34.707 E120.08906 F3000.0
G1 X52.634 Y31.122 E120.28538 F3000.0
G1 X58.780 Y24.976 E120.64676 F3000.0
G1 X64.415 Y20.366 E120.94942 F3000.0
G1 X72.098 Y15.244 E121.33331 F3000.0
G1 X81.317 Y10.634 E121.76186 F3000.0
G1 X90.024 Y7.561 E122.14575 F3000.0
G1 X94.122 Y6.537 E122.32135 F3000.0
G1 X99.756 Y5.512 E122.55943 F3000.0
G1 X104.366 Y5.000 E122.75226 F3000.0
G1 X115.634 Y5.000 E123.22074 F3000.0
G1 X120.244 Y5.512 E123.41357 F3000.0
G1 X125.878 Y6.537 E123.65165 F3000.0
G1 X129.976 Y7.561 E123.82725 F3000.0
G1 X138.683 Y10.634 E124.21115 F3000.0
G1 X147.902 Y15.244 E124.63969 F3000.0
G1 X155.585 Y20.366 E125.02359 F3000.0
G1 X161.220 Y24.976 E125.32624 F3000.0
G1 X167.366 Y31.122 E125.68762 F3000.0
G1 X172.488 Y37.268 E126.02025 F3000.0
G1 X177.098 Y43.927 E126.35695 F3000.0
G1 X180.683 Y50.073 E126.65279 F3000.0
G1 X184.268 Y57.756 E127.00527 F3000.0
G1 X187.341 Y65.951 E127.36916 F3000.0
G1 X189.902 Y75.683 E127.78753 F3000.0
G1 X190.927 Y81.317 E128.02561 F3000.0
G1 X191.951 Y90.024 E128.39011 F3000.0
G1 X191.951 Y104.366 E128.98636 F3000.0
G1 X191.439 Y109.488 E129.20037 F3000.0
G1 X190.415 Y116.146 E129.48046 F3000.0
G1 X188.366 Y124.854 E129.85235 F3000.0
G1 X186.317 Y131.512 E130.14199 F3000.0
G1 X182.732 Y140.220 E130.53349 F3000.0
G1 X180.683 Y144.317 E130.72395 F3000.0
G1 X177.098 Y150.463 E131.01979 F3000.0
G1 X172.488 Y157.122 E131.35648 F3000.0
G1 X167.366 Y163.268 E131.68911 F3000.0
G1 X161.220 Y169.415 E132.05050 F3000.0
G1 X155.585 Y174.024 E132.35315 F3000.0
G1 X150.463 Y177.610 E132.61308 F3000.0
G1 X147.902 Y179.146 E132.73725 F3000.0
G1 X138.683 Y183.756 E133.16580 F3000.0
G1 X136.122 Y184.780 E133.28047 F3000.0
G1 X129.976 Y186.829 E133.54983 F3000.0
G1 X125.878 Y187.854 E133.72543 F3000.0
G1 X120.244 Y188.878 E133.96351 F3000.0
G1 X116.146 Y188.878 E134.13387 F3000.0
G1 X115.122 Y189.902 E134.19410 F3000.0
G1 X115.634 Y192.976 E134.32363 F3000.0
G1 X116.659 Y192.976 E134.36622 F3000.0
G1 X117.683 Y191.951 E134.42645 F3000.0
G1 X121.780 Y190.415 E134.60839 F3000.0
G1 X126.902 Y189.390 E134.82555 F3000.0
G1 X134.073 Y189.390 E135.12367 F3000.0
G1 X139.195 Y190.415 E135.34084 F3000.0
G1 X143.293 Y191.951 E135.52278 F3000.0
G1 X145.854 Y193.488 E135.64695 F3000.0
G1 X149.439 Y197.073 E135.85775 F3000.0
G1 X150.976 Y200.659 E136.01993 F3000.0
G1 X150.976 Y203.732 E136.14769 F3000.0
G1 X149.439 Y207.317 E136.30987 F3000.0
G1 X145.854 Y210.902 E136.52068 F3000.0
G1 X143.293 Y212.439 E136.64484 F3000.0
G1 X140.732 Y213.463 E136.75952 F3000.0
G1 X137.146 Y214.488 E136.91454 F3000.0
; ===== Layer 6 / 10  Z=1.200 =====
G0 Z1.200 F6000.0
G1 X134.073 Y215.000 E137.04407 F3000.0
G1 X126.902 Y215.000 E137.34220 F3000.0
G1 X123.829 Y214.488 E137.47173 F3000.0
G1 X120.244 Y213.463 E137.62676 F3000.0
G1 X117.683 Y212.439 E137.74143 F3000.0
G1 X114.098 Y209.878 E137.92461 F3000.0
G1 X99.756 Y209.878 E138.52086 F3000.0
G1 X99.244 Y188.366 E139.41549 F3000.0
G1 X96.683 Y188.366 E139.52196 F3000.0
G1 X90.024 Y186.829 E139.80607 F3000.0
G1 X83.878 Y184.780 E140.07543 F3000.0
G1 X81.317 Y183.756 E140.19010 F3000.0
G1 X72.098 Y179.146 E140.61865 F3000.0
G1 X68.000 Y176.585 E140.81954 F3000.0
G1 X61.854 Y171.976 E141.13896 F3000.0
G1 X58.780 Y169.415 E141.30527 F3000.0
G1 X52.634 Y163.268 E141.66666 F3000.0
G1 X45.976 Y155.073 E142.10565 F3000.0
G1 X42.902 Y150.463 E142.33599 F3000.0
G1 X39.317 Y144.317 E142.63183 F3000.0
G1 X37.268 Y140.220 E142.82229 F3000.0
G1 X33.683 Y131.512 E143.21379 F3000.0
G1 X31.634 Y124.854 E143.50342 F3000.0
G1 X30.098 Y118.707 E143.76682 F3000.0
G1 X29.073 Y113.073 E144.00490 F3000.0
G1 X28.049 Y104.366 E144.36941 F3000.0
G1 X28.049 Y90.024 E144.96566 F3000.0
G1 X28.561 Y84.902 E145.17967 F3000.0
G1 X30.098 Y75.683 E145.56826 F3000.0
G1 X32.659 Y65.951 E145.98663 F3000.0
G1 X35.732 Y57.756 E146.35051 F3000.0
G1 X39.317 Y50.073 E146.70300 F3000.0
G1 X42.902 Y43.927 E146.99883 F3000.0
G1 X45.976 Y39.317 E147.22917 F3000.0
G1 X49.561 Y34.707 E147.47197 F3000.0
G1 X52.634 Y31.122 E147.66829 F3000.0
G1 X58.780 Y24.976 E148.02967 F3000.0
G1 X64.415 Y20.366 E148.33233 F3000.0
G1 X72.098 Y15.244 E148.71622 F3000.0
G1 X81.317 Y10.634 E149.14477 F3000.0
G1 X90.024 Y7.561 E149.52866 F3000.0
G1 X94.122 Y6.537 E149.70426 F3000.0
G1 X99.756 Y5.512 E149.94234 F3000.0
G1 X104.366 Y5.000 E150.13517 F3000.0
G1 X115.634 Y5.000 E150.60365 F3000.0
G1 X120.244 Y5.512 E150.79648 F3000.0
G1 X125.878 Y6.537 E151.03456 F3000.0
G1 X129.976 Y7.561 E151.21016 F3000.0
G1 X138.683 Y10.634 E151.59406 F3000.0
G1 X147.902 Y15.244 E152.02260 F3000.0
G1 X155.585 Y20.366 E152.40650 F3000.0
G1 X161.220 Y24.976 E152.70915 F3000.0
G1 X167.366 Y31.122 E153.07053 F3000.0
G1 X172.488 Y37.268 E153.40316 F3000.0
G1 X177.098 Y43.927 E153.73986 F3000.0
G1 X180.683 Y50.073 E154.03569 F3000.0
G1 X184.268 Y57.756 E154.38818 F3000.0
G1 X187.341 Y65.951 E154.75207 F3000.0
G1 X189.902 Y75.683 E155.17044 F3000.0
G1 X190.927 Y81.317 E155.40852 F3000.0
G1 X191.951 Y90.024 E155.77302 F3000.0
G1 X191.951 Y104.366 E156.36927 F3000.0
G1 X191.439 Y109.488 E156.58328 F3000.0
G1 X190.415 Y116.146 E156.86337 F3000.0
G1 X188.366 Y124.854 E157.23526 F3000.0
G1 X186.317 Y131.512 E157.52490 F3000.0
G1 X182.732 Y140.220 E157.91640 F3000.0
G1 X180.683 Y144.317 E158.10686 F3000.0
G1 X177.098 Y150.463 E158.40269 F3000.0
G1 X172.488 Y157.122 E158.73939 F3000.0
G1 X167.366 Y163.268 E159.07202 F3000.0
G1 X161.220 Y169.415 E159.43340 F3000.0
G1 X155.585 Y174.024 E159.73606 F3000.0
G1 X150.463 Y177.610 E159.99599 F3000.0
G1 X147.902 Y179.146 E160.12016 F3000.0
G1 X138.683 Y183.756 E160.54871 F3000.0
G1 X136.122 Y184.780 E160.66338 F3000.0
G1 X129.976 Y186.829 E160.93274 F3000.0
G1 X125.878 Y187.854 E161.10834 F3000.0
G1 X120.244 Y188.878 E161.34642 F3000.0
G1 X116.146 Y188.878 E161.51678 F3000.0
G1 X115.122 Y189.902 E161.57701 F3000.0
G1 X115.634 Y192.976 E161.70654 F3000.0
G1 X116.659 Y192.976 E161.74912 F3000.0
G1 X117.683 Y191.951 E161.80935 F3000.0
G1 X121.780 Y190.415 E161.99130 F3000.0
G1 X126.902 Y189.390 E162.20846 F3000.0
G1 X134.073 Y189.390 E162.50658 F3000.0
G1 X139.195 Y190.415 E162.72375 F3000.0
G1 X143.293 Y191.951 E162.90569 F3000.0
G1 X145.854 Y193.488 E163.02986 F3000.0
G1 X149.439 Y197.073 E163.24066 F3000.0
G1 X150.976 Y200.659 E163.40284 F3000.0
G1 X150.976 Y203.732 E163.53060 F3000.0
G1 X149.439 Y207.317 E163.69278 F3000.0
G1 X145.854 Y210.902 E163.90358 F3000.0
G1 X143.293 Y212.439 E164.02775 F3000.0
G1 X140.732 Y213.463 E164.14243 F3000.0
G1 X137.146 Y214.488 E164.29745 F3000.0
; ===== Layer 7 / 10  Z=1.400 =====
G0 Z1.400 F6000.0
G1 X134.073 Y215.000 E164.42698 F3000.0
G1 X126.902 Y215.000 E164.72511 F3000.0
G1 X123.829 Y214.488 E164.85464 F3000.0
G1 X120.244 Y213.463 E165.00967 F3000.0
G1 X117.683 Y212.439 E165.12434 F3000.0
G1 X114.098 Y209.878 E165.30752 F3000.0
G1 X99.756 Y209.878 E165.90377 F3000.0
G1 X99.244 Y188.366 E166.79840 F3000.0
G1 X96.683 Y188.366 E166.90487 F3000.0
G1 X90.024 Y186.829 E167.18898 F3000.0
G1 X83.878 Y184.780 E167.45833 F3000.0
G1 X81.317 Y183.756 E167.57301 F3000.0
G1 X72.098 Y179.146 E168.00156 F3000.0
G1 X68.000 Y176.585 E168.20245 F3000.0
G1 X61.854 Y171.976 E168.52187 F3000.0
G1 X58.780 Y169.415 E168.68818 F3000.0
G1 X52.634 Y163.268 E169.04956 F3000.0
G1 X45.976 Y155.073 E169.48856 F3000.0
G1 X42.902 Y150.463 E169.71890 F3000.0
G1 X39.317 Y144.317 E170.01473 F3000.0
G1 X37.268 Y140.220 E170.20520 F3000.0
G1 X33.683 Y131.512 E170.59670 F3000.0
G1 X31.634 Y124.854 E170.88633 F3000.0
G1 X30.098 Y118.707 E171.14973 F3000.0
G1 X29.073 Y113.073 E171.38781 F3000.0
G1 X28.049 Y104.366 E171.75232 F3000.0
G1 X28.049 Y90.024 E172.34857 F3000.0
G1 X28.561 Y84.902 E172.56258 F3000.0
G1 X30.098 Y75.683 E172.95117 F3000.0
G1 X32.659 Y65.951 E173.36954 F3000.0
G1 X35.732 Y57.756 E173.73342 F3000.0
G1 X39.317 Y50.073 E174.08591 F3000.0
G1 X42.902 Y43.927 E174.38174 F3000.0
G1 X45.976 Y39.317 E174.61208 F3000.0
G1 X49.561 Y34.707 E174.85487 F3000.0
G1 X52.634 Y31.122 E175.05120 F3000.0
G1 X58.780 Y24.976 E175.41258 F3000.0
G1 X64.415 Y20.366 E175.71524 F3000.0
G1 X72.098 Y15.244 E176.09913 F3000.0
G1 X81.317 Y10.634 E176.52767 F3000.0
G1 X90.024 Y7.561 E176.91157 F3000.0
G1 X94.122 Y6.537 E177.08717 F3000.0
G1 X99.756 Y5.512 E177.32525 F3000.0
G1 X104.366 Y5.000 E177.51808 F3000.0
G1 X115.634 Y5.000 E177.98656 F3000.0
G1 X120.244 Y5.512 E178.17939 F3000.0
G1 X125.878 Y6.537 E178.41747 F3000.0
G1 X129.976 Y7.561 E178.59307 F3000.0
G1 X138.683 Y10.634 E178.97697 F3000.0
G1 X147.902 Y15.244 E179.40551 F3000.0
G1 X155.585 Y20.366 E179.78941 F3000.0
G1 X161.220 Y24.976 E180.09206 F3000.0
G1 X167.366 Y31.122 E180.45344 F3000.0
G1 X172.488 Y37.268 E180.78607 F3000.0
G1 X177.098 Y43.927 E181.12277 F3000.0
G1 X180.683 Y50.073 E181.41860 F3000.0
G1 X184.268 Y57.756 E181.77109 F3000.0
G1 X187.341 Y65.951 E182.13497 F3000.0
G1 X189.902 Y75.683 E182.55335 F3000.0
G1 X190.927 Y81.317 E182.79143 F3000.0
G1 X191.951 Y90.024 E183.15593 F3000.0
G1 X191.951 Y104.366 E183.75218 F3000.0
G1 X191.439 Y109.488 E183.96619 F3000.0
G1 X190.415 Y116.146 E184.24628 F3000.0
G1 X188.366 Y124.854 E184.61817 F3000.0
G1 X186.317 Y131.512 E184.90781 F3000.0
G1 X182.732 Y140.220 E185.29930 F3000.0
G1 X180.683 Y144.317 E185.48977 F3000.0
G1 X177.098 Y150.463 E185.78560 F3000.0
G1 X172.488 Y157.122 E186.12230 F3000.0
G1 X167.366 Y163.268 E186.45493 F3000.0
G1 X161.220 Y169.415 E186.81631 F3000.0
G1 X155.585 Y174.024 E187.11897 F3000.0
G1 X150.463 Y177.610 E187.37890 F3000.0
G1 X147.902 Y179.146 E187.50307 F3000.0
G1 X138.683 Y183.756 E187.93161 F3000.0
G1 X136.122 Y184.780 E188.04629 F3000.0
G1 X129.976 Y186.829 E188.31565 F3000.0
G1 X125.878 Y187.854 E188.49125 F3000.0
G1 X120.244 Y188.878 E188.72933 F3000.0
G1 X116.146 Y188.878 E188.89968 F3000.0
G1 X115.122 Y189.902 E188.95991 F3000.0
G1 X115.634 Y192.976 E189.08944 F3000.0
G1 X116.659 Y192.976 E189.13203 F3000.0
G1 X117.683 Y191.951 E189.19226 F3000.0
G1 X121.780 Y190.415 E189.37420 F3000.0
G1 X126.902 Y189.390 E189.59137 F3000.0
G1 X134.073 Y189.390 E189.88949 F3000.0
G1 X139.195 Y190.415 E190.10666 F3000.0
G1 X143.293 Y191.951 E190.28860 F3000.0
G1 X145.854 Y193.488 E190.41276 F3000.0
G1 X149.439 Y197.073 E190.62357 F3000.0
G1 X150.976 Y200.659 E190.78575 F3000.0
G1 X150.976 Y203.732 E190.91351 F3000.0
G1 X149.439 Y207.317 E191.07569 F3000.0
G1 X145.854 Y210.902 E191.28649 F3000.0
G1 X143.293 Y212.439 E191.41066 F3000.0
G1 X140.732 Y213.463 E191.52534 F3000.0
G1 X137.146 Y214.488 E191.68036 F3000.0
; ===== Layer 8 / 10  Z=1.600 =====
G0 Z1.600 F6000.0
G1 X134.073 Y215.000 E191.80989 F3000.0
G1 X126.902 Y215.000 E192.10802 F3000.0
G1 X123.829 Y214.488 E192.23755 F3000.0
G1 X120.244 Y213.463 E192.39257 F3000.0
G1 X117.683 Y212.439 E192.50725 F3000.0
G1 X114.098 Y209.878 E192.69043 F3000.0
G1 X99.756 Y209.878 E193.28668 F3000.0
G1 X99.244 Y188.366 E194.18131 F3000.0
G1 X96.683 Y188.366 E194.28778 F3000.0
G1 X90.024 Y186.829 E194.57189 F3000.0
G1 X83.878 Y184.780 E194.84124 F3000.0
G1 X81.317 Y183.756 E194.95592 F3000.0
G1 X72.098 Y179.146 E195.38446 F3000.0
G1 X68.000 Y176.585 E195.58536 F3000.0
G1 X61.854 Y171.976 E195.90478 F3000.0
G1 X58.780 Y169.415 E196.07109 F3000.0
G1 X52.634 Y163.268 E196.43247 F3000.0
G1 X45.976 Y155.073 E196.87147 F3000.0
G1 X42.902 Y150.463 E197.10181 F3000.0
G1 X39.317 Y144.317 E197.39764 F3000.0
G1 X37.268 Y140.220 E197.58811 F3000.0
G1 X33.683 Y131.512 E197.97960 F3000.0
G1 X31.634 Y124.854 E198.26924 F3000.0
G1 X30.098 Y118.707 E198.53264 F3000.0
G1 X29.073 Y113.073 E198.77072 F3000.0
G1 X28.049 Y104.366 E199.13523 F3000.0
G1 X28.049 Y90.024 E199.73148 F3000.0
G1 X28.561 Y84.902 E199.94548 F3000.0
G1 X30.098 Y75.683 E200.33407 F3000.0
G1 X32.659 Y65.951 E200.75245 F3000.0
G1 X35.732 Y57.756 E201.11633 F3000.0
G1 X39.317 Y50.073 E201.46882 F3000.0
G1 X42.902 Y43.927 E201.76465 F3000.0
G1 X45.976 Y39.317 E201.99499 F3000.0
G1 X49.561 Y34.707 E202.23778 F3000.0
G1 X52.634 Y31.122 E202.43411 F3000.0
G1 X58.780 Y24.976 E202.79549 F3000.0
G1 X64.415 Y20.366 E203.09814 F3000.0
G1 X72.098 Y15.244 E203.48204 F3000.0
G1 X81.317 Y10.634 E203.91058 F3000.0
G1 X90.024 Y7.561 E204.29448 F3000.0
G1 X94.122 Y6.537 E204.47008 F3000.0
G1 X99.756 Y5.512 E204.70816 F3000.0
G1 X104.366 Y5.000 E204.90099 F3000.0
G1 X115.634 Y5.000 E205.36947 F3000.0
G1 X120.244 Y5.512 E205.56230 F3000.0
G1 X125.878 Y6.537 E205.80038 F3000.0
G1 X129.976 Y7.561 E205.97598 F3000.0
G1 X138.683 Y10.634 E206.35988 F3000.0
G1 X147.902 Y15.244 E206.78842 F3000.0
G1 X155.585 Y20.366 E207.17231 F3000.0
G1 X161.220 Y24.976 E207.47497 F3000.0
G1 X167.366 Y31.122 E207.83635 F3000.0
G1 X172.488 Y37.268 E208.16898 F3000.0
G1 X177.098 Y43.927 E208.50568 F3000.0
G1 X180.683 Y50.073 E208.80151 F3000.0
G1 X184.268 Y57.756 E209.15400 F3000.0
G1 X187.341 Y65.951 E209.51788 F3000.0
G1 X189.902 Y75.683 E209.93626 F3000.0
G1 X190.927 Y81.317 E210.17434 F3000.0
G1 X191.951 Y90.024 E210.53884 F3000.0
G1 X191.951 Y104.366 E211.13509 F3000.0
G1 X191.439 Y109.488 E211.34910 F3000.0
G1 X190.415 Y116.146 E211.62918 F3000.0
G1 X188.366 Y124.854 E212.00108 F3000.0
G1 X186.317 Y131.512 E212.29072 F3000.0
G1 X182.732 Y140.220 E212.68221 F3000.0
G1 X180.683 Y144.317 E212.87268 F3000.0
G1 X177.098 Y150.463 E213.16851 F3000.0
G1 X172.488 Y157.122 E213.50521 F3000.0
G1 X167.366 Y163.268 E213.83784 F3000.0
G1 X161.220 Y169.415 E214.19922 F3000.0
G1 X155.585 Y174.024 E214.50188 F3000.0
G1 X150.463 Y177.610 E214.76181 F3000.0
G1 X147.902 Y179.146 E214.88598 F3000.0
G1 X138.683 Y183.756 E215.31452 F3000.0
G1 X136.122 Y184.780 E215.42920 F3000.0
G1 X129.976 Y186.829 E215.69856 F3000.0
G1 X125.878 Y187.854 E215.87416 F3000.0
G1 X120.244 Y188.878 E216.11224 F3000.0
G1 X116.146 Y188.878 E216.28259 F3000.0
G1 X115.122 Y189.902 E216.34282 F3000.0
G1 X115.634 Y192.976 E216.47235 F3000.0
G1 X116.659 Y192.976 E216.51494 F3000.0
G1 X117.683 Y191.951 E216.57517 F3000.0
G1 X121.780 Y190.415 E216.75711 F3000.0
G1 X126.902 Y189.390 E216.97428 F3000.0
G1 X134.073 Y189.390 E217.27240 F3000.0
G1 X139.195 Y190.415 E217.48956 F3000.0
G1 X143.293 Y191.951 E217.67151 F3000.0
G1 X145.854 Y193.488 E217.79567 F3000.0
G1 X149.439 Y197.073 E218.00648 F3000.0
G1 X150.976 Y200.659 E218.16865 F3000.0
G1 X150.976 Y203.732 E218.29642 F3000.0
G1 X149.439 Y207.317 E218.45860 F3000.0
G1 X145.854 Y210.902 E218.66940 F3000.0
G1 X143.293 Y212.439 E218.79357 F3000.0
G1 X140.732 Y213.463 E218.90824 F3000.0
G1 X137.146 Y214.488 E219.06327 F3000.0
; ===== Layer 9 / 10  Z=1.800 =====
G0 Z1.800 F6000.0
G1 X134.073 Y215.000 E219.19280 F3000.0
G1 X126.902 Y215.000 E219.49093 F3000.0
G1 X123.829 Y214.488 E219.62046 F3000.0
G1 X120.244 Y213.463 E219.77548 F3000.0
G1 X117.683 Y212.439 E219.89016 F3000.0
G1 X114.098 Y209.878 E220.07334 F3000.0
G1 X99.756 Y209.878 E220.66959 F3000.0
G1 X99.244 Y188.366 E221.56422 F3000.0
G1 X96.683 Y188.366 E221.67069 F3000.0
G1 X90.024 Y186.829 E221.95480 F3000.0
G1 X83.878 Y184.780 E222.22415 F3000.0
G1 X81.317 Y183.756 E222.33883 F3000.0
G1 X72.098 Y179.146 E222.76737 F3000.0
G1 X68.000 Y176.585 E222.96827 F3000.0
G1 X61.854 Y171.976 E223.28769 F3000.0
G1 X58.780 Y169.415 E223.45400 F3000.0
G1 X52.634 Y163.268 E223.81538 F3000.0
G1 X45.976 Y155.073 E224.25438 F3000.0
G1 X42.902 Y150.463 E224.48472 F3000.0
G1 X39.317 Y144.317 E224.78055 F3000.0
G1 X37.268 Y140.220 E224.97102 F3000.0
G1 X33.683 Y131.512 E225.36251 F3000.0
G1 X31.634 Y124.854 E225.65215 F3000.0
G1 X30.098 Y118.707 E225.91555 F3000.0
G1 X29.073 Y113.073 E226.15363 F3000.0
G1 X28.049 Y104.366 E226.51814 F3000.0
G1 X28.049 Y90.024 E227.11439 F3000.0
G1 X28.561 Y84.902 E227.32839 F3000.0
G1 X30.098 Y75.683 E227.71698 F3000.0
G1 X32.659 Y65.951 E228.13536 F3000.0
G1 X35.732 Y57.756 E228.49924 F3000.0
G1 X39.317 Y50.073 E228.85173 F3000.0
G1 X42.902 Y43.927 E229.14756 F3000.0
G1 X45.976 Y39.317 E229.37790 F3000.0
G1 X49.561 Y34.707 E229.62069 F3000.0
G1 X52.634 Y31.122 E229.81702 F3000.0
G1 X58.780 Y24.976 E230.17840 F3000.0
G1 X64.415 Y20.366 E230.48105 F3000.0
G1 X72.098 Y15.244 E230.86495 F3000.0
G1 X81.317 Y10.634 E231.29349 F3000.0
G1 X90.024 Y7.561 E231.67739 F3000.0
G1 X94.122 Y6.537 E231.85299 F3000.0
G1 X99.756 Y5.512 E232.09107 F3000.0
G1 X104.366 Y5.000 E232.28390 F3000.0
G1 X115.634 Y5.000 E232.75238 F3000.0
G1 X120.244 Y5.512 E232.94521 F3000.0
G1 X125.878 Y6.537 E233.18329 F3000.0
G1 X129.976 Y7.561 E233.35889 F3000.0
G1 X138.683 Y10.634 E233.74278 F3000.0
G1 X147.902 Y15.244 E234.17133 F3000.0
G1 X155.585 Y20.366 E234.55522 F3000.0
G1 X161.220 Y24.976 E234.85788 F3000.0
G1 X167.366 Y31.122 E235.21926 F3000.0
G1 X172.488 Y37.268 E235.55189 F3000.0
G1 X177.098 Y43.927 E235.88859 F3000.0
G1 X180.683 Y50.073 E236.18442 F3000.0
G1 X184.268 Y57.756 E236.53691 F3000.0
G1 X187.341 Y65.951 E236.90079 F3000.0
G1 X189.902 Y75.683 E237.31916 F3000.0
G1 X190.927 Y81.317 E237.55725 F3000.0
G1 X191.951 Y90.024 E237.92175 F3000.0
G1 X191.951 Y104.366 E238.51800 F3000.0
G1 X191.439 Y109.488 E238.73201 F3000.0
G1 X190.415 Y116.146 E239.01209 F3000.0
G1 X188.366 Y124.854 E239.38399 F3000.0
G1 X186.317 Y131.512 E239.67363 F3000.0
G1 X182.732 Y140.220 E240.06512 F3000.0
G1 X180.683 Y144.317 E240.25559 F3000.0
G1 X177.098 Y150.463 E240.55142 F3000.0
G1 X172.488 Y157.122 E240.88812 F3000.0
G1 X167.366 Y163.268 E241.22075 F3000.0
G1 X161.220 Y169.415 E241.58213 F3000.0
G1 X155.585 Y174.024 E241.88478 F3000.0
G1 X150.463 Y177.610 E242.14472 F3000.0
G1 X147.902 Y179.146 E242.26889 F3000.0
G1 X138.683 Y183.756 E242.69743 F3000.0
G1 X136.122 Y184.780 E242.81211 F3000.0
G1 X129.976 Y186.829 E243.08146 F3000.0
G1 X125.878 Y187.854 E243.25706 F3000.0
G1 X120.244 Y188.878 E243.49515 F3000.0
G1 X116.146 Y188.878 E243.66550 F3000.0
G1 X115.122 Y189.902 E243.72573 F3000.0
G1 X115.634 Y192.976 E243.85526 F3000.0
G1 X116.659 Y192.976 E243.89785 F3000.0
G1 X117.683 Y191.951 E243.95808 F3000.0
G1 X121.780 Y190.415 E244.14002 F3000.0
G1 X126.902 Y189.390 E244.35719 F3000.0
G1 X134.073 Y189.390 E244.65531 F3000.0
G1 X139.195 Y190.415 E244.87247 F3000.0
G1 X143.293 Y191.951 E245.05441 F3000.0
G1 X145.854 Y193.488 E245.17858 F3000.0
G1 X149.439 Y197.073 E245.38939 F3000.0
G1 X150.976 Y200.659 E245.55156 F3000.0
G1 X150.976 Y203.732 E245.67933 F3000.0
G1 X149.439 Y207.317 E245.84151 F3000.0
G1 X145.854 Y210.902 E246.05231 F3000.0
G1 X143.293 Y212.439 E246.17648 F3000.0
G1 X140.732 Y213.463 E246.29115 F3000.0
G1 X137.146 Y214.488 E246.44618 F3000.0
; ===== Layer 10 / 10  Z=2.000 =====
G0 Z2.000 F6000.0
G1 X134.073 Y215.000 E246.57571 F3000.0
G1 X126.902 Y215.000 E246.87384 F3000.0
G1 X123.829 Y214.488 E247.00337 F3000.0
G1 X120.244 Y213.463 E247.15839 F3000.0
G1 X117.683 Y212.439 E247.27307 F3000.0
G1 X114.098 Y209.878 E247.45625 F3000.0
G1 X99.756 Y209.878 E248.05250 F3000.0
G1 X99.244 Y188.366 E248.94713 F3000.0
G1 X96.683 Y188.366 E249.05360 F3000.0
G1 X90.024 Y186.829 E249.33770 F3000.0
G1 X83.878 Y184.780 E249.60706 F3000.0
G1 X81.317 Y183.756 E249.72174 F3000.0
G1 X72.098 Y179.146 E250.15028 F3000.0
G1 X68.000 Y176.585 E250.35118 F3000.0
G1 X61.854 Y171.976 E250.67059 F3000.0
G1 X58.780 Y169.415 E250.83691 F3000.0
G1 X52.634 Y163.268 E251.19829 F3000.0
G1 X45.976 Y155.073 E251.63729 F3000.0
G1 X42.902 Y150.463 E251.86763 F3000.0
G1 X39.317 Y144.317 E252.16346 F3000.0
G1 X37.268 Y140.220 E252.35393 F3000.0
G1 X33.683 Y131.512 E252.74542 F3000.0
G1 X31.634 Y124.854 E253.03506 F3000.0
G1 X30.098 Y118.707 E253.29846 F3000.0
G1 X29.073 Y113.073 E253.53654 F3000.0
G1 X28.049 Y104.366 E253.90105 F3000.0
G1 X28.049 Y90.024 E254.49729 F3000.0
G1 X28.561 Y84.902 E254.71130 F3000.0
G1 X30.098 Y75.683 E255.09989 F3000.0
G1 X32.659 Y65.951 E255.51826 F3000.0
G1 X35.732 Y57.756 E255.88215 F3000.0
G1 X39.317 Y50.073 E256.23464 F3000.0
G1 X42.902 Y43.927 E256.53047 F3000.0
G1 X45.976 Y39.317 E256.76081 F3000.0
G1 X49.561 Y34.707 E257.00360 F3000.0
G1 X52.634 Y31.122 E257.19993 F3000.0
G1 X58.780 Y24.976 E257.56131 F3000.0
G1 X64.415 Y20.366 E257.86396 F3000.0
G1 X72.098 Y15.244 E258.24786 F3000.0
G1 X81.317 Y10.634 E258.67640 F3000.0
G1 X90.024 Y7.561 E259.06030 F3000.0
G1 X94.122 Y6.537 E259.23590 F3000.0
G1 X99.756 Y5.512 E259.47398 F3000.0
G1 X104.366 Y5.000 E259.66681 F3000.0
G1 X115.634 Y5.000 E260.13529 F3000.0
G1 X120.244 Y5.512 E260.32812 F3000.0
G1 X125.878 Y6.537 E260.56620 F3000.0
G1 X129.976 Y7.561 E260.74180 F3000.0
G1 X138.683 Y10.634 E261.12569 F3000.0
G1 X147.902 Y15.244 E261.55424 F3000.0
G1 X155.585 Y20.366 E261.93813 F3000.0
G1 X161.220 Y24.976 E262.24079 F3000.0
G1 X167.366 Y31.122 E262.60217 F3000.0
G1 X172.488 Y37.268 E262.93480 F3000.0
G1 X177.098 Y43.927 E263.27150 F3000.0
G1 X180.683 Y50.073 E263.56733 F3000.0
G1 X184.268 Y57.756 E263.91982 F3000.0
G1 X187.341 Y65.951 E264.28370 F3000.0
G1 X189.902 Y75.683 E264.70207 F3000.0
G1 X190.927 Y81.317 E264.94015 F3000.0
G1 X191.951 Y90.024 E265.30466 F3000.0
G1 X191.951 Y104.366 E265.90091 F3000.0
G1 X191.439 Y109.488 E266.11492 F3000.0
G1 X190.415 Y116.146 E266.39500 F3000.0
G1 X188.366 Y124.854 E266.76690 F3000.0
G1 X186.317 Y131.512 E267.05653 F3000.0
G1 X182.732 Y140.220 E267.44803 F3000.0
G1 X180.683 Y144.317 E267.63850 F3000.0
G1 X177.098 Y150.463 E267.93433 F3000.0
G1 X172.488 Y157.122 E268.27103 F3000.0
G1 X167.366 Y163.268 E268.60366 F3000.0
G1 X161.220 Y169.415 E268.96504 F3000.0
G1 X155.585 Y174.024 E269.26769 F3000.0
G1 X150.463 Y177.610 E269.52763 F3000.0
G1 X147.902 Y179.146 E269.65180 F3000.0
G1 X138.683 Y183.756 E270.08034 F3000.0
G1 X136.122 Y184.780 E270.19502 F3000.0
G1 X129.976 Y186.829 E270.46437 F3000.0
G1 X125.878 Y187.854 E270.63997 F3000.0
G1 X120.244 Y188.878 E270.87805 F3000.0
G1 X116.146 Y188.878 E271.04841 F3000.0
G1 X115.122 Y189.902 E271.10864 F3000.0
G1 X115.634 Y192.976 E271.23817 F3000.0
G1 X116.659 Y192.976 E271.28076 F3000.0
G1 X117.683 Y191.951 E271.34099 F3000.0
G1 X121.780 Y190.415 E271.52293 F3000.0
G1 X126.902 Y189.390 E271.74009 F3000.0
G1 X134.073 Y189.390 E272.03822 F3000.0
G1 X139.195 Y190.415 E272.25538 F3000.0
G1 X143.293 Y191.951 E272.43732 F3000.0
G1 X145.854 Y193.488 E272.56149 F3000.0
G1 X149.439 Y197.073 E272.77230 F3000.0
G1 X150.976 Y200.659 E272.93447 F3000.0
G1 X150.976 Y203.732 E273.06224 F3000.0
G1 X149.439 Y207.317 E273.22441 F3000.0
G1 X145.854 Y210.902 E273.43522 F3000.0
G1 X143.293 Y212.439 E273.55939 F3000.0
G1 X140.732 Y213.463 E273.67406 F3000.0
G1 X137.146 Y214.488 E273.82909 F3000.0

; ===== End of print =====
M106 S0          ; Fan OFF
M104 S0          ; Hotend OFF
M140 S0          ; Bed OFF
G0 Z12.000 F6000.0  ; Raise Z
G0 X0 Y0         ; Home XY
M84              ; Disable steppers
; ============================================================
; End of sliced G-code
; ============================================================