; ========================================================
; G-code generated by Image Plotter
; Feed rate   : 3000.0 mm/min
; Travel rate : 6000.0 mm/min
; Pen up Z    : 5.0 mm
; Pen down Z  : 0.0 mm
; ========================================================

G21          ; Set units to millimetres
G90          ; Absolute positioning
G0 Z5.000   ; Lift pen before starting
G0 X0 Y0     ; Move to origin

; --- Path 1 ---
G0 X137.146 Y214.488 F6000  ; Travel
G0 Z0.000    ; Pen DOWN
G1 X134.073 Y215.000 F3000
G1 X126.902 Y215.000 F3000
G1 X123.829 Y214.488 F3000
G1 X120.244 Y213.463 F3000
G1 X117.683 Y212.439 F3000
G1 X114.098 Y209.878 F3000
G1 X99.756 Y209.878 F3000
G1 X99.244 Y188.366 F3000
G1 X96.683 Y188.366 F3000
G1 X90.024 Y186.829 F3000
G1 X83.878 Y184.780 F3000
G1 X81.317 Y183.756 F3000
G1 X72.098 Y179.146 F3000
G1 X68.000 Y176.585 F3000
G1 X61.854 Y171.976 F3000
G1 X58.780 Y169.415 F3000
G1 X52.634 Y163.268 F3000
G1 X45.976 Y155.073 F3000
G1 X42.902 Y150.463 F3000
G1 X39.317 Y144.317 F3000
G1 X37.268 Y140.220 F3000
G1 X33.683 Y131.512 F3000
G1 X31.634 Y124.854 F3000
G1 X30.098 Y118.707 F3000
G1 X29.073 Y113.073 F3000
G1 X28.049 Y104.366 F3000
G1 X28.049 Y90.024 F3000
G1 X28.561 Y84.902 F3000
G1 X30.098 Y75.683 F3000
G1 X32.659 Y65.951 F3000
G1 X35.732 Y57.756 F3000
G1 X39.317 Y50.073 F3000
G1 X42.902 Y43.927 F3000
G1 X45.976 Y39.317 F3000
G1 X49.561 Y34.707 F3000
G1 X52.634 Y31.122 F3000
G1 X58.780 Y24.976 F3000
G1 X64.415 Y20.366 F3000
G1 X72.098 Y15.244 F3000
G1 X81.317 Y10.634 F3000
G1 X90.024 Y7.561 F3000
G1 X94.122 Y6.537 F3000
G1 X99.756 Y5.512 F3000
G1 X104.366 Y5.000 F3000
G1 X115.634 Y5.000 F3000
G1 X120.244 Y5.512 F3000
G1 X125.878 Y6.537 F3000
G1 X129.976 Y7.561 F3000
G1 X138.683 Y10.634 F3000
G1 X147.902 Y15.244 F3000
G1 X155.585 Y20.366 F3000
G1 X161.220 Y24.976 F3000
G1 X167.366 Y31.122 F3000
G1 X172.488 Y37.268 F3000
G1 X177.098 Y43.927 F3000
G1 X180.683 Y50.073 F3000
G1 X184.268 Y57.756 F3000
G1 X187.341 Y65.951 F3000
G1 X189.902 Y75.683 F3000
G1 X190.927 Y81.317 F3000
G1 X191.951 Y90.024 F3000
G1 X191.951 Y104.366 F3000
G1 X191.439 Y109.488 F3000
G1 X190.415 Y116.146 F3000
G1 X188.366 Y124.854 F3000
G1 X186.317 Y131.512 F3000
G1 X182.732 Y140.220 F3000
G1 X180.683 Y144.317 F3000
G1 X177.098 Y150.463 F3000
G1 X172.488 Y157.122 F3000
G1 X167.366 Y163.268 F3000
G1 X161.220 Y169.415 F3000
G1 X155.585 Y174.024 F3000
G1 X150.463 Y177.610 F3000
G1 X147.902 Y179.146 F3000
G1 X138.683 Y183.756 F3000
G1 X136.122 Y184.780 F3000
G1 X129.976 Y186.829 F3000
G1 X125.878 Y187.854 F3000
G1 X120.244 Y188.878 F3000
G1 X116.146 Y188.878 F3000
G1 X115.122 Y189.902 F3000
G1 X115.634 Y192.976 F3000
G1 X116.659 Y192.976 F3000
G1 X117.683 Y191.951 F3000
G1 X121.780 Y190.415 F3000
G1 X126.902 Y189.390 F3000
G1 X134.073 Y189.390 F3000
G1 X139.195 Y190.415 F3000
G1 X143.293 Y191.951 F3000
G1 X145.854 Y193.488 F3000
G1 X149.439 Y197.073 F3000
G1 X150.976 Y200.659 F3000
G1 X150.976 Y203.732 F3000
G1 X149.439 Y207.317 F3000
G1 X145.854 Y210.902 F3000
G1 X143.293 Y212.439 F3000
G1 X140.732 Y213.463 F3000
G1 X137.146 Y214.488 F3000

G0 Z5.000    ; Final pen UP
G0 X0 Y0     ; Return to origin
M84          ; Disable steppers
; ========================================================
; End of program
; ========================================================